{
  "type": "FeatureCollection",
  "features": [
    {
      "type": "Feature",
      "properties": {
        "norad_id": 30515,
        "name": "FENGYUN 1C DEB",
        "group": "fengyun-1c-debris",
        "lat": -81.04216017028659,
        "lon": -71.0608007554661,
        "alt_km": 1397.0323113600716,
        "timestamp": "2025-12-06T05:40:09.519045+00:00",
        "meta_object_name": "FENGYUN 1C DEB",
        "meta_object_id": "1999-025AJD",
        "meta_epoch": "2025-12-04T21:15:25.122816",
        "meta_mean_motion": 13.6375241,
        "meta_eccentricity": 0.0496786,
        "meta_inclination": 98.5096,
        "meta_ra_of_asc_node": 215.9878,
        "meta_arg_of_pericenter": 95.4261,
        "meta_mean_anomaly": 30.6664,
        "meta_ephemeris_type": 0,
        "meta_classification_type": "U",
        "meta_norad_cat_id": 30515,
        "meta_element_set_no": 999,
        "meta_rev_at_epoch": 93223,
        "meta_bstar": 0.00192,
        "meta_mean_motion_dot": 3.501e-05,
        "meta_mean_motion_ddot": 0,
        "tle_line1": "1 30515U 99025AJD 25338.88570744  .00003501  00000+0  19200-2 0  9995",
        "tle_line2": "2 30515  98.5096 215.9878 0496786  95.4261  30.6664 13.63752410932236"
      },
      "geometry": {
        "type": "Point",
        "coordinates": [
          -71.0608007554661,
          -81.04216017028659
        ]
      }
    },
    {
      "type": "Feature",
      "properties": {
        "norad_id": 30516,
        "name": "FENGYUN 1C DEB",
        "group": "fengyun-1c-debris",
        "lat": 43.57245053817157,
        "lon": 75.4823932700532,
        "alt_km": 751.0402340133014,
        "timestamp": "2025-12-06T05:40:09.519068+00:00",
        "meta_object_name": "FENGYUN 1C DEB",
        "meta_object_id": "1999-025AJE",
        "meta_epoch": "2025-12-04T19:04:53.112288",
        "meta_mean_motion": 14.4116737,
        "meta_eccentricity": 0.0008522,
        "meta_inclination": 98.8583,
        "meta_ra_of_asc_node": 82.5219,
        "meta_arg_of_pericenter": 316.3131,
        "meta_mean_anomaly": 175.0151,
        "meta_ephemeris_type": 0,
        "meta_classification_type": "U",
        "meta_norad_cat_id": 30516,
        "meta_element_set_no": 999,
        "meta_rev_at_epoch": 97600,
        "meta_bstar": 0.0051966957,
        "meta_mean_motion_dot": 0.00016761,
        "meta_mean_motion_ddot": 0,
        "tle_line1": "1 30516U 99025AJE 25338.79505917  .00016761  00000+0  51967-2 0  9994",
        "tle_line2": "2 30516  98.8583  82.5219 0008522 316.3131 175.0151 14.41167370976006"
      },
      "geometry": {
        "type": "Point",
        "coordinates": [
          75.4823932700532,
          43.57245053817157
        ]
      }
    },
    {
      "type": "Feature",
      "properties": {
        "norad_id": 30520,
        "name": "FENGYUN 1C DEB",
        "group": "fengyun-1c-debris",
        "lat": -81.21559622064616,
        "lon": -124.67353547307737,
        "alt_km": 574.3659147235503,
        "timestamp": "2025-12-06T05:40:09.519090+00:00",
        "meta_object_name": "FENGYUN 1C DEB",
        "meta_object_id": "1999-025AJJ",
        "meta_epoch": "2025-12-05T04:40:52.965408",
        "meta_mean_motion": 15.13573553,
        "meta_eccentricity": 0.00709755,
        "meta_inclination": 98.718,
        "meta_ra_of_asc_node": 150.9143,
        "meta_arg_of_pericenter": 125.3037,
        "meta_mean_anomaly": 235.4856,
        "meta_ephemeris_type": 0,
        "meta_classification_type": "U",
        "meta_norad_cat_id": 30520,
        "meta_element_set_no": 999,
        "meta_rev_at_epoch": 927,
        "meta_bstar": 0.0019739574,
        "meta_mean_motion_dot": 0.00037766,
        "meta_mean_motion_ddot": 0,
        "tle_line1": "1 30520U 99025AJJ 25339.19505747  .00037766  00000+0  19740-2 0  9996",
        "tle_line2": "2 30520  98.7180 150.9143 0070975 125.3037 235.4856 15.13573553  9276"
      },
      "geometry": {
        "type": "Point",
        "coordinates": [
          -124.67353547307737,
          -81.21559622064616
        ]
      }
    },
    {
      "type": "Feature",
      "properties": {
        "norad_id": 30521,
        "name": "FENGYUN 1C DEB",
        "group": "fengyun-1c-debris",
        "lat": -61.45344721498678,
        "lon": 131.85868684286825,
        "alt_km": 625.9465861411518,
        "timestamp": "2025-12-06T05:40:09.519113+00:00",
        "meta_object_name": "FENGYUN 1C DEB",
        "meta_object_id": "1999-025AJK",
        "meta_epoch": "2025-12-05T01:57:25.390368",
        "meta_mean_motion": 14.58155415,
        "meta_eccentricity": 0.01356493,
        "meta_inclination": 98.9881,
        "meta_ra_of_asc_node": 113.6967,
        "meta_arg_of_pericenter": 267.0728,
        "meta_mean_anomaly": 91.4938,
        "meta_ephemeris_type": 0,
        "meta_classification_type": "U",
        "meta_norad_cat_id": 30521,
        "meta_element_set_no": 999,
        "meta_rev_at_epoch": 99470,
        "meta_bstar": 0.0015200775,
        "meta_mean_motion_dot": 7.902e-05,
        "meta_mean_motion_ddot": 0,
        "tle_line1": "1 30521U 99025AJK 25339.08154387  .00007902  00000+0  15201-2 0  9992",
        "tle_line2": "2 30521  98.9881 113.6967 0135649 267.0728  91.4938 14.58155415994701"
      },
      "geometry": {
        "type": "Point",
        "coordinates": [
          131.85868684286825,
          -61.45344721498678
        ]
      }
    },
    {
      "type": "Feature",
      "properties": {
        "norad_id": 30523,
        "name": "FENGYUN 1C DEB",
        "group": "fengyun-1c-debris",
        "lat": -16.918607755799062,
        "lon": 136.1700594590411,
        "alt_km": 738.2523933151579,
        "timestamp": "2025-12-06T05:40:09.519134+00:00",
        "meta_object_name": "FENGYUN 1C DEB",
        "meta_object_id": "1999-025AJM",
        "meta_epoch": "2025-12-04T16:02:31.523424",
        "meta_mean_motion": 14.27915973,
        "meta_eccentricity": 0.02439167,
        "meta_inclination": 98.4652,
        "meta_ra_of_asc_node": 317.2453,
        "meta_arg_of_pericenter": 132.1983,
        "meta_mean_anomaly": 287.5247,
        "meta_ephemeris_type": 0,
        "meta_classification_type": "U",
        "meta_norad_cat_id": 30523,
        "meta_element_set_no": 999,
        "meta_rev_at_epoch": 97985,
        "meta_bstar": 0.00025783704,
        "meta_mean_motion_dot": 8.31e-06,
        "meta_mean_motion_ddot": 0,
        "tle_line1": "1 30523U 99025AJM 25338.66842041  .00000831  00000+0  25784-3 0  9990",
        "tle_line2": "2 30523  98.4652 317.2453 0243916 132.1983 287.5247 14.27915973979857"
      },
      "geometry": {
        "type": "Point",
        "coordinates": [
          136.1700594590411,
          -16.918607755799062
        ]
      }
    },
    {
      "type": "Feature",
      "properties": {
        "norad_id": 30524,
        "name": "FENGYUN 1C DEB",
        "group": "fengyun-1c-debris",
        "lat": -80.47923129010404,
        "lon": -129.83802495604203,
        "alt_km": 777.3887745965458,
        "timestamp": "2025-12-06T05:40:09.519157+00:00",
        "meta_object_name": "FENGYUN 1C DEB",
        "meta_object_id": "1999-025AJN",
        "meta_epoch": "2025-12-04T05:46:47.277408",
        "meta_mean_motion": 13.9198561,
        "meta_eccentricity": 0.0208033,
        "meta_inclination": 99.3057,
        "meta_ra_of_asc_node": 150.3057,
        "meta_arg_of_pericenter": 272.9367,
        "meta_mean_anomaly": 84.8003,
        "meta_ephemeris_type": 0,
        "meta_classification_type": "U",
        "meta_norad_cat_id": 30524,
        "meta_element_set_no": 999,
        "meta_rev_at_epoch": 93767,
        "meta_bstar": 0.011231,
        "meta_mean_motion_dot": 0.00017097,
        "meta_mean_motion_ddot": 0,
        "tle_line1": "1 30524U 99025AJN 25338.24082497  .00017097  00000+0  11231-1 0  9998",
        "tle_line2": "2 30524  99.3057 150.3057 0208033 272.9367  84.8003 13.91985610937670"
      },
      "geometry": {
        "type": "Point",
        "coordinates": [
          -129.83802495604203,
          -80.47923129010404
        ]
      }
    },
    {
      "type": "Feature",
      "properties": {
        "norad_id": 30525,
        "name": "FENGYUN 1C DEB",
        "group": "fengyun-1c-debris",
        "lat": -31.652686167371304,
        "lon": 40.76640432652292,
        "alt_km": 1131.7202742450945,
        "timestamp": "2025-12-06T05:40:09.519178+00:00",
        "meta_object_name": "FENGYUN 1C DEB",
        "meta_object_id": "1999-025AJP",
        "meta_epoch": "2025-12-04T15:29:18.651264",
        "meta_mean_motion": 13.58571033,
        "meta_eccentricity": 0.0294234,
        "meta_inclination": 98.6024,
        "meta_ra_of_asc_node": 224.7235,
        "meta_arg_of_pericenter": 330.5392,
        "meta_mean_anomaly": 27.9441,
        "meta_ephemeris_type": 0,
        "meta_classification_type": "U",
        "meta_norad_cat_id": 30525,
        "meta_element_set_no": 999,
        "meta_rev_at_epoch": 93007,
        "meta_bstar": 0.0026657,
        "meta_mean_motion_dot": 2.542e-05,
        "meta_mean_motion_ddot": 0,
        "tle_line1": "1 30525U 99025AJP 25338.64535476  .00002542  00000+0  26657-2 0  9991",
        "tle_line2": "2 30525  98.6024 224.7235 0294234 330.5392  27.9441 13.58571033930072"
      },
      "geometry": {
        "type": "Point",
        "coordinates": [
          40.76640432652292,
          -31.652686167371304
        ]
      }
    }
  ]
}